{
  "type": "FeatureCollection",
  "features": [
    {
      "type": "Feature",
      "properties": {
        "norad_id": 33913,
        "name": "COSMOS 2251 DEB",
        "group": "cosmos-2251-debris",
        "lat": 60.68745511672223,
        "lon": -18.58635780307209,
        "alt_km": 758.6750943421684,
        "timestamp": "2025-12-08T05:48:09.426633+00:00",
        "meta_object_name": "COSMOS 2251 DEB",
        "meta_object_id": "1993-036DS",
        "meta_epoch": "2025-12-07T23:13:07.758624",
        "meta_mean_motion": 14.48457617,
        "meta_eccentricity": 0.00481584,
        "meta_inclination": 74.0335,
        "meta_ra_of_asc_node": 192.5858,
        "meta_arg_of_pericenter": 296.0503,
        "meta_mean_anomaly": 188.9348,
        "meta_ephemeris_type": 0,
        "meta_classification_type": "U",
        "meta_norad_cat_id": 33913,
        "meta_element_set_no": 999,
        "meta_rev_at_epoch": 88388,
        "meta_bstar": 0.00071687818,
        "meta_mean_motion_dot": 2.7e-05,
        "meta_mean_motion_ddot": 0,
        "tle_line1": "1 33913U 93036DS  25341.96745091  .00002700  00000+0  71688-3 0  9997",
        "tle_line2": "2 33913  74.0335 192.5858 0048158 296.0503 188.9348 14.48457617883885"
      },
      "geometry": {
        "type": "Point",
        "coordinates": [
          -18.58635780307209,
          60.68745511672223
        ]
      }
    },
    {
      "type": "Feature",
      "properties": {
        "norad_id": 33914,
        "name": "COSMOS 2251 DEB",
        "group": "cosmos-2251-debris",
        "lat": -58.064791592015254,
        "lon": -130.26293902608984,
        "alt_km": 1088.4817989243993,
        "timestamp": "2025-12-08T05:48:09.426643+00:00",
        "meta_object_name": "COSMOS 2251 DEB",
        "meta_object_id": "1993-036DT",
        "meta_epoch": "2025-12-07T20:43:16.965984",
        "meta_mean_motion": 13.71979108,
        "meta_eccentricity": 0.03015928,
        "meta_inclination": 74.0914,
        "meta_ra_of_asc_node": 23.1309,
        "meta_arg_of_pericenter": 127.3511,
        "meta_mean_anomaly": 43.2002,
        "meta_ephemeris_type": 0,
        "meta_classification_type": "U",
        "meta_norad_cat_id": 33914,
        "meta_element_set_no": 999,
        "meta_rev_at_epoch": 84014,
        "meta_bstar": 0.00082047113,
        "meta_mean_motion_dot": 1.01e-05,
        "meta_mean_motion_ddot": 0,
        "tle_line1": "1 33914U 93036DT  25341.86339081  .00001010  00000+0  82047-3 0  9999",
        "tle_line2": "2 33914  74.0914  23.1309 0301592 127.3511  43.2002 13.71979108840149"
      },
      "geometry": {
        "type": "Point",
        "coordinates": [
          -130.26293902608984,
          -58.064791592015254
        ]
      }
    },
    {
      "type": "Feature",
      "properties": {
        "norad_id": 33915,
        "name": "COSMOS 2251 DEB",
        "group": "cosmos-2251-debris",
        "lat": 54.815562350853284,
        "lon": 66.2917420077318,
        "alt_km": 752.7332756311434,
        "timestamp": "2025-12-08T05:48:09.426654+00:00",
        "meta_object_name": "COSMOS 2251 DEB",
        "meta_object_id": "1993-036DU",
        "meta_epoch": "2025-12-07T15:03:16.441632",
        "meta_mean_motion": 14.35065395,
        "meta_eccentricity": 0.01047209,
        "meta_inclination": 74.0444,
        "meta_ra_of_asc_node": 43.4764,
        "meta_arg_of_pericenter": 137.3766,
        "meta_mean_anomaly": 348.6825,
        "meta_ephemeris_type": 0,
        "meta_classification_type": "U",
        "meta_norad_cat_id": 33915,
        "meta_element_set_no": 999,
        "meta_rev_at_epoch": 87684,
        "meta_bstar": 0.00076430676,
        "meta_mean_motion_dot": 2.294e-05,
        "meta_mean_motion_ddot": 0,
        "tle_line1": "1 33915U 93036DU  25341.62727363  .00002294  00000+0  76431-3 0  9993",
        "tle_line2": "2 33915  74.0444  43.4764 0104720 137.3766 348.6825 14.35065395876841"
      },
      "geometry": {
        "type": "Point",
        "coordinates": [
          66.2917420077318,
          54.815562350853284
        ]
      }
    },
    {
      "type": "Feature",
      "properties": {
        "norad_id": 33916,
        "name": "COSMOS 2251 DEB",
        "group": "cosmos-2251-debris",
        "lat": -17.04537824979884,
        "lon": -126.99162651549479,
        "alt_km": 787.3722598327831,
        "timestamp": "2025-12-08T05:48:09.426664+00:00",
        "meta_object_name": "COSMOS 2251 DEB",
        "meta_object_id": "1993-036DV",
        "meta_epoch": "2025-12-07T22:40:56.113824",
        "meta_mean_motion": 13.68604913,
        "meta_eccentricity": 0.03254443,
        "meta_inclination": 74.053,
        "meta_ra_of_asc_node": 48.4665,
        "meta_arg_of_pericenter": 221.6262,
        "meta_mean_anomaly": 316.272,
        "meta_ephemeris_type": 0,
        "meta_classification_type": "U",
        "meta_norad_cat_id": 33916,
        "meta_element_set_no": 999,
        "meta_rev_at_epoch": 83825,
        "meta_bstar": 0.00079084583,
        "meta_mean_motion_dot": 9.59e-06,
        "meta_mean_motion_ddot": 0,
        "tle_line1": "1 33916U 93036DV  25341.94509391  .00000959  00000+0  79085-3 0  9992",
        "tle_line2": "2 33916  74.0530  48.4665 0325444 221.6262 316.2720 13.68604913838257"
      },
      "geometry": {
        "type": "Point",
        "coordinates": [
          -126.99162651549479,
          -17.04537824979884
        ]
      }
    },
    {
      "type": "Feature",
      "properties": {
        "norad_id": 33917,
        "name": "COSMOS 2251 DEB",
        "group": "cosmos-2251-debris",
        "lat": -73.3806393330509,
        "lon": 22.42124167955091,
        "alt_km": 802.4016851946253,
        "timestamp": "2025-12-08T05:48:09.426674+00:00",
        "meta_object_name": "COSMOS 2251 DEB",
        "meta_object_id": "1993-036DW",
        "meta_epoch": "2025-12-07T19:44:25.836864",
        "meta_mean_motion": 13.69346943,
        "meta_eccentricity": 0.03311808,
        "meta_inclination": 74.1067,
        "meta_ra_of_asc_node": 130.4559,
        "meta_arg_of_pericenter": 232.4921,
        "meta_mean_anomaly": 124.567,
        "meta_ephemeris_type": 0,
        "meta_classification_type": "U",
        "meta_norad_cat_id": 33917,
        "meta_element_set_no": 999,
        "meta_rev_at_epoch": 83666,
        "meta_bstar": 0.0011182761,
        "meta_mean_motion_dot": 1.404e-05,
        "meta_mean_motion_ddot": 0,
        "tle_line1": "1 33917U 93036DW  25341.82252126  .00001404  00000+0  11183-2 0  9991",
        "tle_line2": "2 33917  74.1067 130.4559 0331180 232.4921 124.5670 13.69346943836668"
      },
      "geometry": {
        "type": "Point",
        "coordinates": [
          22.42124167955091,
          -73.3806393330509
        ]
      }
    },
    {
      "type": "Feature",
      "properties": {
        "norad_id": 33920,
        "name": "COSMOS 2251 DEB",
        "group": "cosmos-2251-debris",
        "lat": -11.979193268913997,
        "lon": -56.50413275747484,
        "alt_km": 680.629073049583,
        "timestamp": "2025-12-08T05:48:09.426684+00:00",
        "meta_object_name": "COSMOS 2251 DEB",
        "meta_object_id": "1993-036DZ",
        "meta_epoch": "2025-12-07T23:16:22.423872",
        "meta_mean_motion": 14.58139887,
        "meta_eccentricity": 0.00381712,
        "meta_inclination": 74.0615,
        "meta_ra_of_asc_node": 307.4887,
        "meta_arg_of_pericenter": 314.8623,
        "meta_mean_anomaly": 44.9442,
        "meta_ephemeris_type": 0,
        "meta_classification_type": "U",
        "meta_norad_cat_id": 33920,
        "meta_element_set_no": 999,
        "meta_rev_at_epoch": 88045,
        "meta_bstar": 0.0027403169,
        "meta_mean_motion_dot": 0.0001275,
        "meta_mean_motion_ddot": 0,
        "tle_line1": "1 33920U 93036DZ  25341.96970398  .00012750  00000+0  27403-2 0  9996",
        "tle_line2": "2 33920  74.0615 307.4887 0038171 314.8623  44.9442 14.58139887880452"
      },
      "geometry": {
        "type": "Point",
        "coordinates": [
          -56.50413275747484,
          -11.979193268913997
        ]
      }
    },
    {
      "type": "Feature",
      "properties": {
        "norad_id": 33922,
        "name": "COSMOS 2251 DEB",
        "group": "cosmos-2251-debris",
        "lat": -74.03255771981875,
        "lon": 67.48500176385974,
        "alt_km": 717.7775542414347,
        "timestamp": "2025-12-08T05:48:09.426694+00:00",
        "meta_object_name": "COSMOS 2251 DEB",
        "meta_object_id": "1993-036EB",
        "meta_epoch": "2025-12-07T22:30:19.755360",
        "meta_mean_motion": 14.49480541,
        "meta_eccentricity": 0.00232885,
        "meta_inclination": 74.0463,
        "meta_ra_of_asc_node": 156.7668,
        "meta_arg_of_pericenter": 267.9615,
        "meta_mean_anomaly": 216.4678,
        "meta_ephemeris_type": 0,
        "meta_classification_type": "U",
        "meta_norad_cat_id": 33922,
        "meta_element_set_no": 999,
        "meta_rev_at_epoch": 88508,
        "meta_bstar": 0.00065173055,
        "meta_mean_motion_dot": 2.478e-05,
        "meta_mean_motion_ddot": 0,
        "tle_line1": "1 33922U 93036EB  25341.93772865  .00002478  00000+0  65173-3 0  9997",
        "tle_line2": "2 33922  74.0463 156.7668 0023288 267.9615 216.4678 14.49480541885086"
      },
      "geometry": {
        "type": "Point",
        "coordinates": [
          67.48500176385974,
          -74.03255771981875
        ]
      }
    }
  ]
}